LANDSAT 8               
1 39084U 13008A   20211.69906963  .00000043  00000-0  19602-4 0  9999
2 39084  98.2246 280.8724 0001587  97.8874 262.2503 14.57107851396852
